STARLINK-3150           
1 49452U 21104AW  26068.73588929  .00000043  00000+0  20768-4 0  9998
2 49452  53.2171 218.9535 0001506  90.6309 269.4856 15.08842721238783
LEMUR-2-AHMED-ASRAR     
1 60576U 24149DN  26068.73265438  .00013045  00000+0  79773-3 0  9992
2 60576  97.7021 152.9847 0001633  18.5035 341.6253 15.10376432 85541
